SPACEMOBILE-004         
1 61049U 24163E   26203.12805740  .00021093  00000+0  96140-3 0  9993
2 61049  52.9727 148.2451 0005368 248.8575 111.1846 15.20619582103083
CZ-8A R/B               
1 66004U 25231K   26203.47852840 -.00000061  00000+0  36982-4 0  9999
2 66004  50.0028 249.1718 0116543 348.2648  11.5557 14.30163757 39991
SZ-21 MODULE            
1 66515U 25246C   26202.96291009  .00053835  00000+0  28882-3 0  9994
2 66515  41.4722  90.2512 0009460 262.6462  97.3309 15.79324031 39234
SPACEMOBILE-006         
1 67232U 25309A   26203.18674793  .00002664  00000+0  14204-3 0  9998
2 67232  52.9952 171.3039 0009520 239.2696 120.7360 15.18684570 31919
SPACEMOBILE-008         
1 69589U 26139A   26203.02362932  .00000387  00000+0  38732-4 0  9992
2 69589  52.9952 104.4056 0005288  72.6023 287.5546 15.12810954  5259
SPACEMOBILE-009         
1 69590U 26139B   26203.02606359  .00001404  00000+0  96209-4 0  9992
2 69590  52.9945 104.4147 0005584  69.1876 290.9713 15.12712567  5255
SPACEMOBILE-010         
1 69591U 26139C   26203.42637522  .00001239  00000+0  87277-4 0  9994
2 69591  52.9950 102.6425 0005595  62.5571 297.5989 15.12550128  5321
